[{"OBJECT_NAME":"TRANSPORTER-12 OBJECT AZ","OBJECT_ID":"2025-009AZ","EPOCH":"2026-03-09T17:02:46.667040","MEAN_MOTION":15.30349724,"ECCENTRICITY":9.87e-5,"INCLINATION":97.3981,"RA_OF_ASC_NODE":151.9913,"ARG_OF_PERICENTER":45.3581,"MEAN_ANOMALY":314.774,"EPHEMERIS_TYPE":0,"CLASSIFICATION_TYPE":"U","NORAD_CAT_ID":62656,"ELEMENT_SET_NO":999,"REV_AT_EPOCH":6379,"BSTAR":0.00054902545,"MEAN_MOTION_DOT":0.00016057,"MEAN_MOTION_DDOT":0},{"OBJECT_NAME":"STARLINK-36481","OBJECT_ID":"2026-002C","EPOCH":"2026-03-09T01:46:48.422784","MEAN_MOTION":15.27611965,"ECCENTRICITY":0.0001216,"INCLINATION":42.9981,"RA_OF_ASC_NODE":328.836,"ARG_OF_PERICENTER":260.8046,"MEAN_ANOMALY":99.2668,"EPHEMERIS_TYPE":0,"CLASSIFICATION_TYPE":"U","NORAD_CAT_ID":67307,"ELEMENT_SET_NO":999,"REV_AT_EPOCH":1098,"BSTAR":0.0010584992,"MEAN_MOTION_DOT":0.00029009,"MEAN_MOTION_DDOT":0}]
