TRANSPORTER-12 OBJECT AZ
1 62656U 25009AZ  26068.71026235  .00016057  00000+0  54903-3 0  9991
2 62656  97.3981 151.9913 0000987  45.3581 314.7740 15.30349724 63792
STARLINK-36481          
1 67307U 26002C   26068.07417156  .00029009  00000+0  10585-2 0  9996
2 67307  42.9981 328.8360 0001216 260.8046  99.2668 15.27611965 10985
